[Satellite]
VERSION=1.1
NAME=FLOCK 2P-9
NICKNAME=FLOCK 2P-9
TLE1=1 41610U 16040M   17186.27440019  .00000944  00000-0  44065-4 0  9993
TLE2=2 41610  97.4580 248.7605 0011532  20.2229 339.9462 15.22256351 57255
